<?xml version="1.0" encoding="UTF-8"?>
<gpx version="1.1" creator="park-tracker" xmlns="http://www.topografix.com/GPX/1/1">
  <wpt lat="40.766552" lon="-73.972665"><time>2026-07-13T15:00:00Z</time></wpt>
  <wpt lat="40.766586" lon="-73.972565"><time>2026-07-13T15:00:06Z</time></wpt>
  <wpt lat="40.766614" lon="-73.972522"><time>2026-07-13T15:00:12Z</time></wpt>
  <wpt lat="40.766649" lon="-73.972484"><time>2026-07-13T15:00:18Z</time></wpt>
  <wpt lat="40.766703" lon="-73.972448"><time>2026-07-13T15:00:24Z</time></wpt>
  <wpt lat="40.766686" lon="-73.972335"><time>2026-07-13T15:00:30Z</time></wpt>
  <wpt lat="40.766669" lon="-73.972222"><time>2026-07-13T15:00:36Z</time></wpt>
  <wpt lat="40.766694" lon="-73.972209"><time>2026-07-13T15:00:42Z</time></wpt>
  <wpt lat="40.766716" lon="-73.972196"><time>2026-07-13T15:00:48Z</time></wpt>
  <wpt lat="40.766781" lon="-73.972150"><time>2026-07-13T15:00:54Z</time></wpt>
  <wpt lat="40.766845" lon="-73.972104"><time>2026-07-13T15:01:00Z</time></wpt>
  <wpt lat="40.766910" lon="-73.972058"><time>2026-07-13T15:01:06Z</time></wpt>
  <wpt lat="40.766975" lon="-73.972012"><time>2026-07-13T15:01:12Z</time></wpt>
  <wpt lat="40.767039" lon="-73.971966"><time>2026-07-13T15:01:18Z</time></wpt>
  <wpt lat="40.767104" lon="-73.971920"><time>2026-07-13T15:01:24Z</time></wpt>
  <wpt lat="40.767169" lon="-73.971874"><time>2026-07-13T15:01:30Z</time></wpt>
  <wpt lat="40.767234" lon="-73.971828"><time>2026-07-13T15:01:36Z</time></wpt>
  <wpt lat="40.767298" lon="-73.971781"><time>2026-07-13T15:01:42Z</time></wpt>
  <wpt lat="40.767363" lon="-73.971735"><time>2026-07-13T15:01:48Z</time></wpt>
  <wpt lat="40.767428" lon="-73.971689"><time>2026-07-13T15:01:54Z</time></wpt>
  <wpt lat="40.767502" lon="-73.971636"><time>2026-07-13T15:02:00Z</time></wpt>
  <wpt lat="40.767575" lon="-73.971582"><time>2026-07-13T15:02:06Z</time></wpt>
  <wpt lat="40.767648" lon="-73.971527"><time>2026-07-13T15:02:12Z</time></wpt>
  <wpt lat="40.767720" lon="-73.971472"><time>2026-07-13T15:02:18Z</time></wpt>
  <wpt lat="40.767792" lon="-73.971417"><time>2026-07-13T15:02:24Z</time></wpt>
  <wpt lat="40.767865" lon="-73.971363"><time>2026-07-13T15:02:30Z</time></wpt>
  <wpt lat="40.767937" lon="-73.971308"><time>2026-07-13T15:02:36Z</time></wpt>
  <wpt lat="40.768010" lon="-73.971253"><time>2026-07-13T15:02:42Z</time></wpt>
  <wpt lat="40.768100" lon="-73.971188"><time>2026-07-13T15:02:48Z</time></wpt>
  <wpt lat="40.768120" lon="-73.971173"><time>2026-07-13T15:02:54Z</time></wpt>
  <wpt lat="40.768148" lon="-73.971152"><time>2026-07-13T15:03:00Z</time></wpt>
  <wpt lat="40.768171" lon="-73.971144"><time>2026-07-13T15:03:06Z</time></wpt>
  <wpt lat="40.768181" lon="-73.971142"><time>2026-07-13T15:03:12Z</time></wpt>
  <wpt lat="40.768189" lon="-73.971142"><time>2026-07-13T15:03:18Z</time></wpt>
  <wpt lat="40.768199" lon="-73.971144"><time>2026-07-13T15:03:24Z</time></wpt>
  <wpt lat="40.768210" lon="-73.971147"><time>2026-07-13T15:03:30Z</time></wpt>
  <wpt lat="40.768237" lon="-73.971157"><time>2026-07-13T15:03:36Z</time></wpt>
  <wpt lat="40.768248" lon="-73.971159"><time>2026-07-13T15:03:42Z</time></wpt>
  <wpt lat="40.768252" lon="-73.971160"><time>2026-07-13T15:03:48Z</time></wpt>
  <wpt lat="40.768256" lon="-73.971160"><time>2026-07-13T15:03:54Z</time></wpt>
  <wpt lat="40.768263" lon="-73.971159"><time>2026-07-13T15:04:00Z</time></wpt>
  <wpt lat="40.768270" lon="-73.971158"><time>2026-07-13T15:04:06Z</time></wpt>
  <wpt lat="40.768282" lon="-73.971155"><time>2026-07-13T15:04:12Z</time></wpt>
  <wpt lat="40.768296" lon="-73.971148"><time>2026-07-13T15:04:18Z</time></wpt>
  <wpt lat="40.768308" lon="-73.971141"><time>2026-07-13T15:04:24Z</time></wpt>
  <wpt lat="40.768323" lon="-73.971129"><time>2026-07-13T15:04:30Z</time></wpt>
  <wpt lat="40.768392" lon="-73.971067"><time>2026-07-13T15:04:36Z</time></wpt>
  <wpt lat="40.768462" lon="-73.971006"><time>2026-07-13T15:04:42Z</time></wpt>
  <wpt lat="40.768480" lon="-73.970992"><time>2026-07-13T15:04:48Z</time></wpt>
  <wpt lat="40.768499" lon="-73.970980"><time>2026-07-13T15:04:54Z</time></wpt>
  <wpt lat="40.768531" lon="-73.970965"><time>2026-07-13T15:05:00Z</time></wpt>
  <wpt lat="40.768550" lon="-73.970955"><time>2026-07-13T15:05:06Z</time></wpt>
  <wpt lat="40.768571" lon="-73.970948"><time>2026-07-13T15:05:12Z</time></wpt>
  <wpt lat="40.768591" lon="-73.970945"><time>2026-07-13T15:05:18Z</time></wpt>
  <wpt lat="40.768610" lon="-73.970944"><time>2026-07-13T15:05:24Z</time></wpt>
  <wpt lat="40.768648" lon="-73.970945"><time>2026-07-13T15:05:30Z</time></wpt>
  <wpt lat="40.768749" lon="-73.970952"><time>2026-07-13T15:05:36Z</time></wpt>
  <wpt lat="40.768850" lon="-73.970960"><time>2026-07-13T15:05:42Z</time></wpt>
  <wpt lat="40.768981" lon="-73.970939"><time>2026-07-13T15:05:48Z</time></wpt>
  <wpt lat="40.769055" lon="-73.970925"><time>2026-07-13T15:05:54Z</time></wpt>
  <wpt lat="40.769065" lon="-73.970923"><time>2026-07-13T15:06:00Z</time></wpt>
  <wpt lat="40.769074" lon="-73.970924"><time>2026-07-13T15:06:06Z</time></wpt>
  <wpt lat="40.769089" lon="-73.970926"><time>2026-07-13T15:06:12Z</time></wpt>
  <wpt lat="40.769105" lon="-73.970933"><time>2026-07-13T15:06:18Z</time></wpt>
  <wpt lat="40.769123" lon="-73.970943"><time>2026-07-13T15:06:24Z</time></wpt>
  <wpt lat="40.769140" lon="-73.970955"><time>2026-07-13T15:06:30Z</time></wpt>
  <wpt lat="40.769239" lon="-73.971030"><time>2026-07-13T15:06:36Z</time></wpt>
  <wpt lat="40.769360" lon="-73.971111"><time>2026-07-13T15:06:42Z</time></wpt>
  <wpt lat="40.769455" lon="-73.971163"><time>2026-07-13T15:06:48Z</time></wpt>
  <wpt lat="40.769520" lon="-73.971186"><time>2026-07-13T15:06:54Z</time></wpt>
  <wpt lat="40.769590" lon="-73.971198"><time>2026-07-13T15:07:00Z</time></wpt>
  <wpt lat="40.769642" lon="-73.971201"><time>2026-07-13T15:07:06Z</time></wpt>
  <wpt lat="40.769698" lon="-73.971198"><time>2026-07-13T15:07:12Z</time></wpt>
  <wpt lat="40.769736" lon="-73.971193"><time>2026-07-13T15:07:18Z</time></wpt>
  <wpt lat="40.769755" lon="-73.971188"><time>2026-07-13T15:07:24Z</time></wpt>
  <wpt lat="40.769768" lon="-73.971183"><time>2026-07-13T15:07:30Z</time></wpt>
  <wpt lat="40.769782" lon="-73.971176"><time>2026-07-13T15:07:36Z</time></wpt>
  <wpt lat="40.769794" lon="-73.971164"><time>2026-07-13T15:07:42Z</time></wpt>
  <wpt lat="40.769805" lon="-73.971154"><time>2026-07-13T15:07:48Z</time></wpt>
  <wpt lat="40.769850" lon="-73.971074"><time>2026-07-13T15:07:54Z</time></wpt>
  <wpt lat="40.769890" lon="-73.971023"><time>2026-07-13T15:08:00Z</time></wpt>
  <wpt lat="40.769971" lon="-73.970939"><time>2026-07-13T15:08:06Z</time></wpt>
  <wpt lat="40.769943" lon="-73.970851"><time>2026-07-13T15:08:12Z</time></wpt>
  <wpt lat="40.769928" lon="-73.970802"><time>2026-07-13T15:08:18Z</time></wpt>
  <wpt lat="40.769916" lon="-73.970769"><time>2026-07-13T15:08:24Z</time></wpt>
  <wpt lat="40.769912" lon="-73.970753"><time>2026-07-13T15:08:30Z</time></wpt>
  <wpt lat="40.769909" lon="-73.970736"><time>2026-07-13T15:08:36Z</time></wpt>
  <wpt lat="40.769908" lon="-73.970725"><time>2026-07-13T15:08:42Z</time></wpt>
  <wpt lat="40.769909" lon="-73.970695"><time>2026-07-13T15:08:48Z</time></wpt>
  <wpt lat="40.769911" lon="-73.970669"><time>2026-07-13T15:08:54Z</time></wpt>
  <wpt lat="40.769914" lon="-73.970647"><time>2026-07-13T15:09:00Z</time></wpt>
  <wpt lat="40.769929" lon="-73.970582"><time>2026-07-13T15:09:06Z</time></wpt>
  <wpt lat="40.769947" lon="-73.970509"><time>2026-07-13T15:09:12Z</time></wpt>
  <wpt lat="40.769960" lon="-73.970465"><time>2026-07-13T15:09:18Z</time></wpt>
  <wpt lat="40.769969" lon="-73.970441"><time>2026-07-13T15:09:24Z</time></wpt>
  <wpt lat="40.769978" lon="-73.970419"><time>2026-07-13T15:09:30Z</time></wpt>
  <wpt lat="40.769988" lon="-73.970397"><time>2026-07-13T15:09:36Z</time></wpt>
  <wpt lat="40.770045" lon="-73.970289"><time>2026-07-13T15:09:42Z</time></wpt>
  <wpt lat="40.770088" lon="-73.970210"><time>2026-07-13T15:09:48Z</time></wpt>
  <wpt lat="40.770131" lon="-73.970131"><time>2026-07-13T15:09:54Z</time></wpt>
  <wpt lat="40.770184" lon="-73.970025"><time>2026-07-13T15:10:00Z</time></wpt>
  <wpt lat="40.770275" lon="-73.969948"><time>2026-07-13T15:10:06Z</time></wpt>
  <wpt lat="40.770392" lon="-73.969859"><time>2026-07-13T15:10:12Z</time></wpt>
  <wpt lat="40.770424" lon="-73.969737"><time>2026-07-13T15:10:18Z</time></wpt>
  <wpt lat="40.770463" lon="-73.969599"><time>2026-07-13T15:10:24Z</time></wpt>
  <wpt lat="40.770502" lon="-73.969495"><time>2026-07-13T15:10:30Z</time></wpt>
  <wpt lat="40.770538" lon="-73.969419"><time>2026-07-13T15:10:36Z</time></wpt>
  <wpt lat="40.770604" lon="-73.969326"><time>2026-07-13T15:10:42Z</time></wpt>
  <wpt lat="40.770675" lon="-73.969240"><time>2026-07-13T15:10:48Z</time></wpt>
  <wpt lat="40.770727" lon="-73.969163"><time>2026-07-13T15:10:54Z</time></wpt>
  <wpt lat="40.770796" lon="-73.969071"><time>2026-07-13T15:11:00Z</time></wpt>
  <wpt lat="40.770870" lon="-73.968931"><time>2026-07-13T15:11:06Z</time></wpt>
  <wpt lat="40.770929" lon="-73.968822"><time>2026-07-13T15:11:12Z</time></wpt>
  <wpt lat="40.770988" lon="-73.968713"><time>2026-07-13T15:11:18Z</time></wpt>
  <wpt lat="40.771082" lon="-73.968582"><time>2026-07-13T15:11:24Z</time></wpt>
  <wpt lat="40.771186" lon="-73.968470"><time>2026-07-13T15:11:30Z</time></wpt>
  <wpt lat="40.771232" lon="-73.968436"><time>2026-07-13T15:11:36Z</time></wpt>
  <wpt lat="40.771285" lon="-73.968405"><time>2026-07-13T15:11:42Z</time></wpt>
  <wpt lat="40.771402" lon="-73.968351"><time>2026-07-13T15:11:48Z</time></wpt>
  <wpt lat="40.771495" lon="-73.968321"><time>2026-07-13T15:11:54Z</time></wpt>
  <wpt lat="40.771587" lon="-73.968292"><time>2026-07-13T15:12:00Z</time></wpt>
  <wpt lat="40.771673" lon="-73.968262"><time>2026-07-13T15:12:06Z</time></wpt>
  <wpt lat="40.771759" lon="-73.968233"><time>2026-07-13T15:12:12Z</time></wpt>
  <wpt lat="40.771836" lon="-73.968203"><time>2026-07-13T15:12:18Z</time></wpt>
  <wpt lat="40.771912" lon="-73.968174"><time>2026-07-13T15:12:24Z</time></wpt>
  <wpt lat="40.771989" lon="-73.968144"><time>2026-07-13T15:12:30Z</time></wpt>
  <wpt lat="40.772058" lon="-73.968110"><time>2026-07-13T15:12:36Z</time></wpt>
  <wpt lat="40.772127" lon="-73.968077"><time>2026-07-13T15:12:42Z</time></wpt>
  <wpt lat="40.772175" lon="-73.968042"><time>2026-07-13T15:12:48Z</time></wpt>
  <wpt lat="40.772264" lon="-73.967975"><time>2026-07-13T15:12:54Z</time></wpt>
  <wpt lat="40.772328" lon="-73.967914"><time>2026-07-13T15:13:00Z</time></wpt>
  <wpt lat="40.772391" lon="-73.967852"><time>2026-07-13T15:13:06Z</time></wpt>
  <wpt lat="40.772455" lon="-73.967790"><time>2026-07-13T15:13:12Z</time></wpt>
  <wpt lat="40.772518" lon="-73.967728"><time>2026-07-13T15:13:18Z</time></wpt>
  <wpt lat="40.772620" lon="-73.967646"><time>2026-07-13T15:13:24Z</time></wpt>
  <wpt lat="40.772696" lon="-73.967596"><time>2026-07-13T15:13:30Z</time></wpt>
  <wpt lat="40.772789" lon="-73.967557"><time>2026-07-13T15:13:36Z</time></wpt>
  <wpt lat="40.772899" lon="-73.967494"><time>2026-07-13T15:13:42Z</time></wpt>
  <wpt lat="40.772962" lon="-73.967482"><time>2026-07-13T15:13:48Z</time></wpt>
  <wpt lat="40.772984" lon="-73.967481"><time>2026-07-13T15:13:54Z</time></wpt>
  <wpt lat="40.773009" lon="-73.967479"><time>2026-07-13T15:14:00Z</time></wpt>
  <wpt lat="40.773115" lon="-73.967478"><time>2026-07-13T15:14:06Z</time></wpt>
  <wpt lat="40.773139" lon="-73.967478"><time>2026-07-13T15:14:12Z</time></wpt>
  <wpt lat="40.773179" lon="-73.967487"><time>2026-07-13T15:14:18Z</time></wpt>
  <wpt lat="40.773225" lon="-73.967504"><time>2026-07-13T15:14:24Z</time></wpt>
  <wpt lat="40.773285" lon="-73.967533"><time>2026-07-13T15:14:30Z</time></wpt>
  <wpt lat="40.773348" lon="-73.967580"><time>2026-07-13T15:14:36Z</time></wpt>
  <wpt lat="40.773408" lon="-73.967633"><time>2026-07-13T15:14:42Z</time></wpt>
  <wpt lat="40.773460" lon="-73.967687"><time>2026-07-13T15:14:48Z</time></wpt>
  <wpt lat="40.773529" lon="-73.967774"><time>2026-07-13T15:14:54Z</time></wpt>
  <wpt lat="40.773598" lon="-73.967832"><time>2026-07-13T15:15:00Z</time></wpt>
  <wpt lat="40.773643" lon="-73.967852"><time>2026-07-13T15:15:06Z</time></wpt>
  <wpt lat="40.773688" lon="-73.967855"><time>2026-07-13T15:15:12Z</time></wpt>
  <wpt lat="40.773748" lon="-73.967852"><time>2026-07-13T15:15:18Z</time></wpt>
  <wpt lat="40.773800" lon="-73.967837"><time>2026-07-13T15:15:24Z</time></wpt>
  <wpt lat="40.773856" lon="-73.967796"><time>2026-07-13T15:15:30Z</time></wpt>
  <wpt lat="40.773872" lon="-73.967778"><time>2026-07-13T15:15:36Z</time></wpt>
  <wpt lat="40.773897" lon="-73.967743"><time>2026-07-13T15:15:42Z</time></wpt>
  <wpt lat="40.773958" lon="-73.967721"><time>2026-07-13T15:15:48Z</time></wpt>
  <wpt lat="40.773993" lon="-73.967711"><time>2026-07-13T15:15:54Z</time></wpt>
  <wpt lat="40.774039" lon="-73.967709"><time>2026-07-13T15:16:00Z</time></wpt>
  <wpt lat="40.774128" lon="-73.967697"><time>2026-07-13T15:16:06Z</time></wpt>
  <wpt lat="40.774261" lon="-73.967639"><time>2026-07-13T15:16:12Z</time></wpt>
  <wpt lat="40.774335" lon="-73.967601"><time>2026-07-13T15:16:18Z</time></wpt>
  <wpt lat="40.774403" lon="-73.967557"><time>2026-07-13T15:16:24Z</time></wpt>
  <wpt lat="40.774424" lon="-73.967543"><time>2026-07-13T15:16:30Z</time></wpt>
  <wpt lat="40.774542" lon="-73.967439"><time>2026-07-13T15:16:36Z</time></wpt>
  <wpt lat="40.774594" lon="-73.967371"><time>2026-07-13T15:16:42Z</time></wpt>
  <wpt lat="40.774646" lon="-73.967302"><time>2026-07-13T15:16:48Z</time></wpt>
  <wpt lat="40.774698" lon="-73.967234"><time>2026-07-13T15:16:54Z</time></wpt>
  <wpt lat="40.774750" lon="-73.967165"><time>2026-07-13T15:17:00Z</time></wpt>
  <wpt lat="40.774802" lon="-73.967096"><time>2026-07-13T15:17:06Z</time></wpt>
  <wpt lat="40.774836" lon="-73.967062"><time>2026-07-13T15:17:12Z</time></wpt>
  <wpt lat="40.774913" lon="-73.966977"><time>2026-07-13T15:17:18Z</time></wpt>
  <wpt lat="40.774996" lon="-73.966866"><time>2026-07-13T15:17:24Z</time></wpt>
  <wpt lat="40.775094" lon="-73.966761"><time>2026-07-13T15:17:30Z</time></wpt>
  <wpt lat="40.775155" lon="-73.966688"><time>2026-07-13T15:17:36Z</time></wpt>
  <wpt lat="40.775190" lon="-73.966646"><time>2026-07-13T15:17:42Z</time></wpt>
  <wpt lat="40.775230" lon="-73.966597"><time>2026-07-13T15:17:48Z</time></wpt>
  <wpt lat="40.775256" lon="-73.966568"><time>2026-07-13T15:17:54Z</time></wpt>
  <wpt lat="40.775278" lon="-73.966546"><time>2026-07-13T15:18:00Z</time></wpt>
  <wpt lat="40.775352" lon="-73.966509"><time>2026-07-13T15:18:06Z</time></wpt>
  <wpt lat="40.775426" lon="-73.966472"><time>2026-07-13T15:18:12Z</time></wpt>
  <wpt lat="40.775520" lon="-73.966421"><time>2026-07-13T15:18:18Z</time></wpt>
  <wpt lat="40.775571" lon="-73.966393"><time>2026-07-13T15:18:24Z</time></wpt>
  <wpt lat="40.775619" lon="-73.966366"><time>2026-07-13T15:18:30Z</time></wpt>
  <wpt lat="40.775665" lon="-73.966338"><time>2026-07-13T15:18:36Z</time></wpt>
  <wpt lat="40.775703" lon="-73.966313"><time>2026-07-13T15:18:42Z</time></wpt>
  <wpt lat="40.775737" lon="-73.966283"><time>2026-07-13T15:18:48Z</time></wpt>
  <wpt lat="40.775777" lon="-73.966249"><time>2026-07-13T15:18:54Z</time></wpt>
  <wpt lat="40.775816" lon="-73.966204"><time>2026-07-13T15:19:00Z</time></wpt>
  <wpt lat="40.775850" lon="-73.966158"><time>2026-07-13T15:19:06Z</time></wpt>
  <wpt lat="40.775905" lon="-73.966075"><time>2026-07-13T15:19:12Z</time></wpt>
  <wpt lat="40.775961" lon="-73.965993"><time>2026-07-13T15:19:18Z</time></wpt>
  <wpt lat="40.776016" lon="-73.965911"><time>2026-07-13T15:19:24Z</time></wpt>
  <wpt lat="40.776036" lon="-73.965884"><time>2026-07-13T15:19:30Z</time></wpt>
  <wpt lat="40.776061" lon="-73.965856"><time>2026-07-13T15:19:36Z</time></wpt>
  <wpt lat="40.776175" lon="-73.965756"><time>2026-07-13T15:19:42Z</time></wpt>
  <wpt lat="40.776203" lon="-73.965731"><time>2026-07-13T15:19:48Z</time></wpt>
  <wpt lat="40.776280" lon="-73.965676"><time>2026-07-13T15:19:54Z</time></wpt>
  <wpt lat="40.776314" lon="-73.965655"><time>2026-07-13T15:20:00Z</time></wpt>
  <wpt lat="40.776332" lon="-73.965646"><time>2026-07-13T15:20:06Z</time></wpt>
  <wpt lat="40.776346" lon="-73.965640"><time>2026-07-13T15:20:12Z</time></wpt>
  <wpt lat="40.776361" lon="-73.965636"><time>2026-07-13T15:20:18Z</time></wpt>
  <wpt lat="40.776389" lon="-73.965631"><time>2026-07-13T15:20:24Z</time></wpt>
  <wpt lat="40.776419" lon="-73.965628"><time>2026-07-13T15:20:30Z</time></wpt>
  <wpt lat="40.776444" lon="-73.965626"><time>2026-07-13T15:20:36Z</time></wpt>
  <wpt lat="40.776465" lon="-73.965627"><time>2026-07-13T15:20:42Z</time></wpt>
  <wpt lat="40.776511" lon="-73.965631"><time>2026-07-13T15:20:48Z</time></wpt>
  <wpt lat="40.776523" lon="-73.965632"><time>2026-07-13T15:20:54Z</time></wpt>
  <wpt lat="40.776612" lon="-73.965642"><time>2026-07-13T15:21:00Z</time></wpt>
  <wpt lat="40.776692" lon="-73.965642"><time>2026-07-13T15:21:06Z</time></wpt>
  <wpt lat="40.776744" lon="-73.965623"><time>2026-07-13T15:21:12Z</time></wpt>
  <wpt lat="40.776817" lon="-73.965571"><time>2026-07-13T15:21:18Z</time></wpt>
  <wpt lat="40.776889" lon="-73.965519"><time>2026-07-13T15:21:24Z</time></wpt>
  <wpt lat="40.776956" lon="-73.965472"><time>2026-07-13T15:21:30Z</time></wpt>
  <wpt lat="40.777022" lon="-73.965425"><time>2026-07-13T15:21:36Z</time></wpt>
  <wpt lat="40.777088" lon="-73.965379"><time>2026-07-13T15:21:42Z</time></wpt>
  <wpt lat="40.777136" lon="-73.965349"><time>2026-07-13T15:21:48Z</time></wpt>
  <wpt lat="40.777175" lon="-73.965333"><time>2026-07-13T15:21:54Z</time></wpt>
  <wpt lat="40.777212" lon="-73.965318"><time>2026-07-13T15:22:00Z</time></wpt>
  <wpt lat="40.777267" lon="-73.965303"><time>2026-07-13T15:22:06Z</time></wpt>
  <wpt lat="40.777369" lon="-73.965282"><time>2026-07-13T15:22:12Z</time></wpt>
  <wpt lat="40.777470" lon="-73.965262"><time>2026-07-13T15:22:18Z</time></wpt>
  <wpt lat="40.777495" lon="-73.965256"><time>2026-07-13T15:22:24Z</time></wpt>
  <wpt lat="40.777510" lon="-73.965250"><time>2026-07-13T15:22:30Z</time></wpt>
  <wpt lat="40.777525" lon="-73.965242"><time>2026-07-13T15:22:36Z</time></wpt>
  <wpt lat="40.777546" lon="-73.965228"><time>2026-07-13T15:22:42Z</time></wpt>
  <wpt lat="40.777565" lon="-73.965215"><time>2026-07-13T15:22:48Z</time></wpt>
  <wpt lat="40.777592" lon="-73.965188"><time>2026-07-13T15:22:54Z</time></wpt>
  <wpt lat="40.777639" lon="-73.965140"><time>2026-07-13T15:23:00Z</time></wpt>
  <wpt lat="40.777707" lon="-73.965052"><time>2026-07-13T15:23:06Z</time></wpt>
  <wpt lat="40.777743" lon="-73.965006"><time>2026-07-13T15:23:12Z</time></wpt>
  <wpt lat="40.777795" lon="-73.964928"><time>2026-07-13T15:23:18Z</time></wpt>
  <wpt lat="40.777848" lon="-73.964849"><time>2026-07-13T15:23:24Z</time></wpt>
  <wpt lat="40.777917" lon="-73.964735"><time>2026-07-13T15:23:30Z</time></wpt>
  <wpt lat="40.777971" lon="-73.964654"><time>2026-07-13T15:23:36Z</time></wpt>
  <wpt lat="40.777927" lon="-73.964569"><time>2026-07-13T15:23:42Z</time></wpt>
  <wpt lat="40.777848" lon="-73.964431"><time>2026-07-13T15:23:48Z</time></wpt>
  <wpt lat="40.777798" lon="-73.964349"><time>2026-07-13T15:23:54Z</time></wpt>
  <wpt lat="40.777740" lon="-73.964283"><time>2026-07-13T15:24:00Z</time></wpt>
  <wpt lat="40.777685" lon="-73.964228"><time>2026-07-13T15:24:06Z</time></wpt>
  <wpt lat="40.777627" lon="-73.964185"><time>2026-07-13T15:24:12Z</time></wpt>
  <wpt lat="40.777553" lon="-73.964143"><time>2026-07-13T15:24:18Z</time></wpt>
  <wpt lat="40.777479" lon="-73.964100"><time>2026-07-13T15:24:24Z</time></wpt>
  <wpt lat="40.777409" lon="-73.964043"><time>2026-07-13T15:24:30Z</time></wpt>
  <wpt lat="40.777353" lon="-73.963974"><time>2026-07-13T15:24:36Z</time></wpt>
  <wpt lat="40.777304" lon="-73.963885"><time>2026-07-13T15:24:42Z</time></wpt>
  <wpt lat="40.777239" lon="-73.963732"><time>2026-07-13T15:24:48Z</time></wpt>
  <wpt lat="40.777233" lon="-73.963718"><time>2026-07-13T15:24:54Z</time></wpt>
  <wpt lat="40.777299" lon="-73.963671"><time>2026-07-13T15:25:00Z</time></wpt>
  <wpt lat="40.777364" lon="-73.963623"><time>2026-07-13T15:25:06Z</time></wpt>
  <wpt lat="40.777429" lon="-73.963575"><time>2026-07-13T15:25:12Z</time></wpt>
  <wpt lat="40.777495" lon="-73.963528"><time>2026-07-13T15:25:18Z</time></wpt>
  <wpt lat="40.777560" lon="-73.963480"><time>2026-07-13T15:25:24Z</time></wpt>
  <wpt lat="40.777682" lon="-73.963391"><time>2026-07-13T15:25:30Z</time></wpt>
  <wpt lat="40.777745" lon="-73.963345"><time>2026-07-13T15:25:36Z</time></wpt>
  <wpt lat="40.777758" lon="-73.963339"><time>2026-07-13T15:25:42Z</time></wpt>
  <wpt lat="40.777798" lon="-73.963318"><time>2026-07-13T15:25:48Z</time></wpt>
  <wpt lat="40.777816" lon="-73.963306"><time>2026-07-13T15:25:54Z</time></wpt>
  <wpt lat="40.777881" lon="-73.963260"><time>2026-07-13T15:26:00Z</time></wpt>
  <wpt lat="40.777946" lon="-73.963214"><time>2026-07-13T15:26:06Z</time></wpt>
  <wpt lat="40.778009" lon="-73.963168"><time>2026-07-13T15:26:12Z</time></wpt>
  <wpt lat="40.778072" lon="-73.963121"><time>2026-07-13T15:26:18Z</time></wpt>
  <wpt lat="40.778136" lon="-73.963075"><time>2026-07-13T15:26:24Z</time></wpt>
  <wpt lat="40.778199" lon="-73.963028"><time>2026-07-13T15:26:30Z</time></wpt>
  <wpt lat="40.778262" lon="-73.962982"><time>2026-07-13T15:26:36Z</time></wpt>
  <wpt lat="40.778326" lon="-73.962935"><time>2026-07-13T15:26:42Z</time></wpt>
  <wpt lat="40.778356" lon="-73.962913"><time>2026-07-13T15:26:48Z</time></wpt>
  <wpt lat="40.778431" lon="-73.962857"><time>2026-07-13T15:26:54Z</time></wpt>
  <wpt lat="40.778497" lon="-73.962810"><time>2026-07-13T15:27:00Z</time></wpt>
  <wpt lat="40.778562" lon="-73.962762"><time>2026-07-13T15:27:06Z</time></wpt>
  <wpt lat="40.778628" lon="-73.962714"><time>2026-07-13T15:27:12Z</time></wpt>
  <wpt lat="40.778694" lon="-73.962666"><time>2026-07-13T15:27:18Z</time></wpt>
  <wpt lat="40.778759" lon="-73.962618"><time>2026-07-13T15:27:24Z</time></wpt>
  <wpt lat="40.778825" lon="-73.962570"><time>2026-07-13T15:27:30Z</time></wpt>
  <wpt lat="40.778890" lon="-73.962522"><time>2026-07-13T15:27:36Z</time></wpt>
  <wpt lat="40.778959" lon="-73.962472"><time>2026-07-13T15:27:42Z</time></wpt>
  <wpt lat="40.779064" lon="-73.962396"><time>2026-07-13T15:27:48Z</time></wpt>
  <wpt lat="40.779131" lon="-73.962347"><time>2026-07-13T15:27:54Z</time></wpt>
  <wpt lat="40.779197" lon="-73.962299"><time>2026-07-13T15:28:00Z</time></wpt>
  <wpt lat="40.779264" lon="-73.962251"><time>2026-07-13T15:28:06Z</time></wpt>
  <wpt lat="40.779329" lon="-73.962203"><time>2026-07-13T15:28:12Z</time></wpt>
  <wpt lat="40.779393" lon="-73.962156"><time>2026-07-13T15:28:18Z</time></wpt>
  <wpt lat="40.779458" lon="-73.962108"><time>2026-07-13T15:28:24Z</time></wpt>
  <wpt lat="40.779523" lon="-73.962061"><time>2026-07-13T15:28:30Z</time></wpt>
  <wpt lat="40.779588" lon="-73.962013"><time>2026-07-13T15:28:36Z</time></wpt>
</gpx>